{"type": "FeatureCollection", "features": [ {"type": "Feature", "properties": {"norad_id": 66969, "name": "STARLINK-36149", "group": "last-30-days", "lat": -11.677729914321628, "lon": 89.07956999255607, "alt_km": 349.57693242635105, "timestamp": "2025-12-23T09:49:05.799396+00:00", "meta": {"OBJECT_NAME": "STARLINK-36149", "OBJECT_ID": "2025-288L", "EPOCH": "2025-12-22T22:00:03.000096", "MEAN_MOTION": 15.75340936, "ECCENTRICITY": 0.00016912, "INCLINATION": 43.0006, "RA_OF_ASC_NODE": 104.8792, "ARG_OF_PERICENTER": 284.642, "MEAN_ANOMALY": 143.9919, "EPHEMERIS_TYPE": 0, "CLASSIFICATION_TYPE": "U", "NORAD_CAT_ID": 66969, "ELEMENT_SET_NO": 999, "REV_AT_EPOCH": 346, "BSTAR": -0.013109375, "MEAN_MOTION_DOT": -0.01790834, "MEAN_MOTION_DDOT": 0}, "tle": {"line1": "1 66969U 25288L   25356.91670139 -.01790834  00000+0 -13109-1 0  9996", "line2": "2 66969  43.0006 104.8792 0001691 284.6420 143.9919 15.75340936  3467"}}, "geometry": {"type": "Point", "coordinates": [89.07956999255607, -11.677729914321628]}}, {"type": "Feature", "properties": {"norad_id": 66970, "name": "STARLINK-35703", "group": "last-30-days", "lat": -6.533191197801823, "lon": 94.81542932372247, "alt_km": 349.02633355876605, "timestamp": "2025-12-23T09:49:05.799407+00:00", "meta": {"OBJECT_NAME": "STARLINK-35703", "OBJECT_ID": "2025-288M", "EPOCH": "2025-12-22T22:00:03.000096", "MEAN_MOTION": 15.75329199, "ECCENTRICITY": 0.00014724, "INCLINATION": 43.0008, "RA_OF_ASC_NODE": 104.8596, "ARG_OF_PERICENTER": 293.4855, "MEAN_ANOMALY": 142.8212, "EPHEMERIS_TYPE": 0, "CLASSIFICATION_TYPE": "U", "NORAD_CAT_ID": 66970, "ELEMENT_SET_NO": 999, "REV_AT_EPOCH": 346, "BSTAR": -0.012984539, "MEAN_MOTION_DOT": -0.01774899, "MEAN_MOTION_DDOT": 0}, "tle": {"line1": "1 66970U 25288M   25356.91670139 -.01774899  00000+0 -12985-1 0  9992", "line2": "2 66970  43.0008 104.8596 0001472 293.4855 142.8212 15.75329199  3462"}}, "geometry": {"type": "Point", "coordinates": [94.81542932372247, -6.533191197801823]}}, {"type": "Feature", "properties": {"norad_id": 66971, "name": "STARLINK-35678", "group": "last-30-days", "lat": -16.701173140906615, "lon": 83.13235020436903, "alt_km": 350.28271095823857, "timestamp": "2025-12-23T09:49:05.799417+00:00", "meta": {"OBJECT_NAME": "STARLINK-35678", "OBJECT_ID": "2025-288N", "EPOCH": "2025-12-22T22:00:03.000096", "MEAN_MOTION": 15.75271002, "ECCENTRICITY": 0.00014343, "INCLINATION": 43.0008, "RA_OF_ASC_NODE": 104.8995, "ARG_OF_PERICENTER": 276.2014, "MEAN_ANOMALY": 144.8479, "EPHEMERIS_TYPE": 0, "CLASSIFICATION_TYPE": "U", "NORAD_CAT_ID": 66971, "ELEMENT_SET_NO": 999, "REV_AT_EPOCH": 346, "BSTAR": -0.012781779, "MEAN_MOTION_DOT": -0.0174656, "MEAN_MOTION_DDOT": 0}, "tle": {"line1": "1 66971U 25288N   25356.91670139 -.01746560  00000+0 -12782-1 0  9992", "line2": "2 66971  43.0008 104.8995 0001434 276.2014 144.8479 15.75271002  3466"}}, "geometry": {"type": "Point", "coordinates": [83.13235020436903, -16.701173140906615]}}, {"type": "Feature", "properties": {"norad_id": 66972, "name": "STARLINK-34846", "group": "last-30-days", "lat": -15.460752288394955, "lon": 84.64367936021196, "alt_km": 349.96654943125213, "timestamp": "2025-12-23T09:49:05.799427+00:00", "meta": {"OBJECT_NAME": "STARLINK-34846", "OBJECT_ID": "2025-288P", "EPOCH": "2025-12-22T22:00:03.000096", "MEAN_MOTION": 15.75349317, "ECCENTRICITY": 0.00017299, "INCLINATION": 43.0007, "RA_OF_ASC_NODE": 104.8948, "ARG_OF_PERICENTER": 280.4245, "MEAN_ANOMALY": 142.4654, "EPHEMERIS_TYPE": 0, "CLASSIFICATION_TYPE": "U", "NORAD_CAT_ID": 66972, "ELEMENT_SET_NO": 999, "REV_AT_EPOCH": 346, "BSTAR": -0.013264155, "MEAN_MOTION_DOT": -0.01809932, "MEAN_MOTION_DDOT": 0}, "tle": {"line1": "1 66972U 25288P   25356.91670139 -.01809932  00000+0 -13264-1 0  9992", "line2": "2 66972  43.0007 104.8948 0001729 280.4245 142.4654 15.75349317  3468"}}, "geometry": {"type": "Point", "coordinates": [84.64367936021196, -15.460752288394955]}}, {"type": "Feature", "properties": {"norad_id": 66973, "name": "STARLINK-35778", "group": "last-30-days", "lat": -14.20882619932291, "lon": 86.13860266936082, "alt_km": 349.91504600134067, "timestamp": "2025-12-23T09:49:05.799439+00:00", "meta": {"OBJECT_NAME": "STARLINK-35778", "OBJECT_ID": "2025-288Q", "EPOCH": "2025-12-22T22:00:03.000096", "MEAN_MOTION": 15.75347246, "ECCENTRICITY": 0.00018501, "INCLINATION": 43.0006, "RA_OF_ASC_NODE": 104.8901, "ARG_OF_PERICENTER": 276.0337, "MEAN_ANOMALY": 148.7602, "EPHEMERIS_TYPE": 0, "CLASSIFICATION_TYPE": "U", "NORAD_CAT_ID": 66973, "ELEMENT_SET_NO": 999, "REV_AT_EPOCH": 346, "BSTAR": -0.013163, "MEAN_MOTION_DOT": -0.01797818, "MEAN_MOTION_DDOT": 0}, "tle": {"line1": "1 66973U 25288Q   25356.91670139 -.01797818  00000+0 -13163-1 0  9990", "line2": "2 66973  43.0006 104.8901 0001850 276.0337 148.7602 15.75347246  3466"}}, "geometry": {"type": "Point", "coordinates": [86.13860266936082, -14.20882619932291]}}, {"type": "Feature", "properties": {"norad_id": 66974, "name": "STARLINK-35780", "group": "last-30-days", "lat": -12.9499553299252, "lon": 87.61443018896942, "alt_km": 350.01193895316374, "timestamp": "2025-12-23T09:49:05.799453+00:00", "meta": {"OBJECT_NAME": "STARLINK-35780", "OBJECT_ID": "2025-288R", "EPOCH": "2025-12-22T22:00:03.000096", "MEAN_MOTION": 15.75358523, "ECCENTRICITY": 0.00012115, "INCLINATION": 43.0009, "RA_OF_ASC_NODE": 104.8853, "ARG_OF_PERICENTER": 278.5928, "MEAN_ANOMALY": 148.1122, "EPHEMERIS_TYPE": 0, "CLASSIFICATION_TYPE": "U", "NORAD_CAT_ID": 66974, "ELEMENT_SET_NO": 999, "REV_AT_EPOCH": 346, "BSTAR": -0.013246508, "MEAN_MOTION_DOT": -0.01808043, "MEAN_MOTION_DDOT": 0}, "tle": {"line1": "1 66974U 25288R   25356.91670139 -.01808043  00000+0 -13247-1 0  9997", "line2": "2 66974  43.0009 104.8853 0001211 278.5928 148.1122 15.75358523  3461"}}, "geometry": {"type": "Point", "coordinates": [87.61443018896942, -12.9499553299252]}}, {"type": "Feature", "properties": {"norad_id": 66975, "name": "STARLINK-35777", "group": "last-30-days", "lat": -10.399354296045594, "lon": 90.53132521548329, "alt_km": 349.6134371273765, "timestamp": "2025-12-23T09:49:05.799463+00:00", "meta": {"OBJECT_NAME": "STARLINK-35777", "OBJECT_ID": "2025-288S", "EPOCH": "2025-12-22T22:00:03.000096", "MEAN_MOTION": 15.75342953, "ECCENTRICITY": 0.00015716, "INCLINATION": 43.0006, "RA_OF_ASC_NODE": 104.8745, "ARG_OF_PERICENTER": 281.0434, "MEAN_ANOMALY": 149.507, "EPHEMERIS_TYPE": 0, "CLASSIFICATION_TYPE": "U", "NORAD_CAT_ID": 66975, "ELEMENT_SET_NO": 999, "REV_AT_EPOCH": 346, "BSTAR": -0.013123115, "MEAN_MOTION_DOT": -0.01792518, "MEAN_MOTION_DDOT": 0}, "tle": {"line1": "1 66975U 25288S   25356.91670139 -.01792518  00000+0 -13123-1 0  9990", "line2": "2 66975  43.0006 104.8745 0001571 281.0434 149.5070 15.75342953  3466"}}, "geometry": {"type": "Point", "coordinates": [90.53132521548329, -10.399354296045594]}}, {"type": "Feature", "properties": {"norad_id": 66976, "name": "STARLINK-35772", "group": "last-30-days", "lat": 17.76479416126989, "lon": 122.78992559872556, "alt_km": 407.710712013225, "timestamp": "2025-12-23T09:49:05.799475+00:00", "meta": {"OBJECT_NAME": "STARLINK-35772", "OBJECT_ID": "2025-288T", "EPOCH": "2025-12-22T22:00:03.000096", "MEAN_MOTION": 15.54825156, "ECCENTRICITY": 0.0001252, "INCLINATION": 43.0003, "RA_OF_ASC_NODE": 105.5736, "ARG_OF_PERICENTER": 289.6581, "MEAN_ANOMALY": 219.9417, "EPHEMERIS_TYPE": 0, "CLASSIFICATION_TYPE": "U", "NORAD_CAT_ID": 66976, "ELEMENT_SET_NO": 999, "REV_AT_EPOCH": 346, "BSTAR": -0.041212033, "MEAN_MOTION_DOT": -0.02503021, "MEAN_MOTION_DDOT": 0}, "tle": {"line1": "1 66976U 25288T   25356.91670139 -.02503021  00000+0 -41212-1 0  9991", "line2": "2 66976  43.0003 105.5736 0001252 289.6581 219.9417 15.54825156  3460"}}, "geometry": {"type": "Point", "coordinates": [122.78992559872556, 17.76479416126989]}}, {"type": "Feature", "properties": {"norad_id": 66977, "name": "STARLINK-35770", "group": "last-30-days", "lat": -9.11836150560976, "lon": 91.96766132996461, "alt_km": 349.4876048850474, "timestamp": "2025-12-23T09:49:05.799485+00:00", "meta": {"OBJECT_NAME": "STARLINK-35770", "OBJECT_ID": "2025-288U", "EPOCH": "2025-12-22T22:00:03.000096", "MEAN_MOTION": 15.7534734, "ECCENTRICITY": 0.00012963, "INCLINATION": 43.0005, "RA_OF_ASC_NODE": 104.8707, "ARG_OF_PERICENTER": 286.4582, "MEAN_ANOMALY": 146.0029, "EPHEMERIS_TYPE": 0, "CLASSIFICATION_TYPE": "U", "NORAD_CAT_ID": 66977, "ELEMENT_SET_NO": 999, "REV_AT_EPOCH": 346, "BSTAR": -0.013139938, "MEAN_MOTION_DOT": -0.01794609, "MEAN_MOTION_DDOT": 0}, "tle": {"line1": "1 66977U 25288U   25356.91670139 -.01794609  00000+0 -13140-1 0  9994", "line2": "2 66977  43.0005 104.8707 0001296 286.4582 146.0029 15.75347340  3463"}}, "geometry": {"type": "Point", "coordinates": [91.96766132996461, -9.11836150560976]}}, {"type": "Feature", "properties": {"norad_id": 66978, "name": "STARLINK-35787", "group": "last-30-days", "lat": -5.2287961127886655, "lon": 96.23475764824273, "alt_km": 349.5766514940551, "timestamp": "2025-12-23T09:49:05.799506+00:00", "meta": {"OBJECT_NAME": "STARLINK-35787", "OBJECT_ID": "2025-288V", "EPOCH": "2025-12-22T22:00:03.000096", "MEAN_MOTION": 15.75280301, "ECCENTRICITY": 0.00015565, "INCLINATION": 43.0007, "RA_OF_ASC_NODE": 104.8554, "ARG_OF_PERICENTER": 265.7581, "MEAN_ANOMALY": 172.5116, "EPHEMERIS_TYPE": 0, "CLASSIFICATION_TYPE": "U", "NORAD_CAT_ID": 66978, "ELEMENT_SET_NO": 999, "REV_AT_EPOCH": 346, "BSTAR": -0.012671658, "MEAN_MOTION_DOT": -0.01734041, "MEAN_MOTION_DDOT": 0}, "tle": {"line1": "1 66978U 25288V   25356.91670139 -.01734041  00000+0 -12672-1 0  9998", "line2": "2 66978  43.0007 104.8554 0001556 265.7581 172.5116 15.75280301  3468"}}, "geometry": {"type": "Point", "coordinates": [96.23475764824273, -5.2287961127886655]}}]}